{"type": "FeatureCollection", "features": [ {"type": "Feature", "properties": {"norad_id": 31931, "name": "FENGYUN 1C DEB", "group": "fengyun-1c-debris", "lat": 45.34397647733269, "lon": -62.24981368463542, "alt_km": 1399.640619919037, "timestamp": "2025-12-23T16:57:12.638008+00:00", "meta": {"OBJECT_NAME": "FENGYUN 1C DEB", "OBJECT_ID": "1999-025CMG", "EPOCH": "2025-12-23T02:24:09.253440", "MEAN_MOTION": 13.42631589, "ECCENTRICITY": 0.0422514, "INCLINATION": 97.8147, "RA_OF_ASC_NODE": 305.2675, "ARG_OF_PERICENTER": 242.6444, "MEAN_ANOMALY": 113.1098, "EPHEMERIS_TYPE": 0, "CLASSIFICATION_TYPE": "U", "NORAD_CAT_ID": 31931, "ELEMENT_SET_NO": 999, "REV_AT_EPOCH": 65361, "BSTAR": 0.00051347655, "MEAN_MOTION_DOT": 4.63e-06, "MEAN_MOTION_DDOT": 0}, "tle": {"line1": "1 31931U 99025CMG 25357.10010710  .00000463  00000+0  51348-3 0  9990", "line2": "2 31931  97.8147 305.2675 0422514 242.6444 113.1098 13.42631589653613"}}, "geometry": {"type": "Point", "coordinates": [-62.24981368463542, 45.34397647733269]}}, {"type": "Feature", "properties": {"norad_id": 31934, "name": "FENGYUN 1C DEB", "group": "fengyun-1c-debris", "lat": -18.39010243286959, "lon": 51.69603298196622, "alt_km": 568.2818040073444, "timestamp": "2025-12-23T16:57:12.638019+00:00", "meta": {"OBJECT_NAME": "FENGYUN 1C DEB", "OBJECT_ID": "1999-025CMK", "EPOCH": "2025-12-17T14:29:22.520832", "MEAN_MOTION": 15.0735698, "ECCENTRICITY": 0.00367266, "INCLINATION": 98.8801, "RA_OF_ASC_NODE": 41.6776, "ARG_OF_PERICENTER": 217.4543, "MEAN_ANOMALY": 142.4121, "EPHEMERIS_TYPE": 0, "CLASSIFICATION_TYPE": "U", "NORAD_CAT_ID": 31934, "ELEMENT_SET_NO": 999, "REV_AT_EPOCH": 60916, "BSTAR": 0.0026504952, "MEAN_MOTION_DOT": 0.00040819, "MEAN_MOTION_DDOT": 0}, "tle": {"line1": "1 31934U 99025CMK 25351.60373288  .00040819  00000+0  26505-2 0  9999", "line2": "2 31934  98.8801  41.6776 0036726 217.4543 142.4121 15.07356980609168"}}, "geometry": {"type": "Point", "coordinates": [51.69603298196622, -18.39010243286959]}}, {"type": "Feature", "properties": {"norad_id": 31937, "name": "FENGYUN 1C DEB", "group": "fengyun-1c-debris", "lat": -39.763966993242256, "lon": 96.72360334826898, "alt_km": 576.4734006575836, "timestamp": "2025-12-23T16:57:12.638028+00:00", "meta": {"OBJECT_NAME": "FENGYUN 1C DEB", "OBJECT_ID": "1999-025CMN", "EPOCH": "2025-12-06T23:52:27.149088", "MEAN_MOTION": 14.78022374, "ECCENTRICITY": 0.0162921, "INCLINATION": 99.2561, "RA_OF_ASC_NODE": 69.7316, "ARG_OF_PERICENTER": 315.3928, "MEAN_ANOMALY": 43.4262, "EPHEMERIS_TYPE": 0, "CLASSIFICATION_TYPE": "U", "NORAD_CAT_ID": 31937, "ELEMENT_SET_NO": 999, "REV_AT_EPOCH": 65984, "BSTAR": 0.0011794166, "MEAN_MOTION_DOT": 0.00010567, "MEAN_MOTION_DDOT": 0}, "tle": {"line1": "1 31937U 99025CMN 25340.99475867  .00010567  00000+0  11794-2 0  9999", "line2": "2 31937  99.2561  69.7316 0162921 315.3928  43.4262 14.78022374659842"}}, "geometry": {"type": "Point", "coordinates": [96.72360334826898, -39.763966993242256]}}, {"type": "Feature", "properties": {"norad_id": 31938, "name": "FENGYUN 1C DEB", "group": "fengyun-1c-debris", "lat": -54.793541884216545, "lon": -162.2124125312333, "alt_km": 683.2485484301133, "timestamp": "2025-12-23T16:57:12.638038+00:00", "meta": {"OBJECT_NAME": "FENGYUN 1C DEB", "OBJECT_ID": "1999-025CMP", "EPOCH": "2025-12-23T01:27:13.962528", "MEAN_MOTION": 14.95726283, "ECCENTRICITY": 0.01525366, "INCLINATION": 98.9286, "RA_OF_ASC_NODE": 29.9263, "ARG_OF_PERICENTER": 33.0976, "MEAN_ANOMALY": 327.9674, "EPHEMERIS_TYPE": 0, "CLASSIFICATION_TYPE": "U", "NORAD_CAT_ID": 31938, "ELEMENT_SET_NO": 999, "REV_AT_EPOCH": 99290, "BSTAR": 0.00045052509, "MEAN_MOTION_DOT": 6.263e-05, "MEAN_MOTION_DDOT": 0}, "tle": {"line1": "1 31938U 99025CMP 25357.06057827  .00006263  00000+0  45053-3 0  9992", "line2": "2 31938  98.9286  29.9263 0152536  33.0976 327.9674 14.95726283992903"}}, "geometry": {"type": "Point", "coordinates": [-162.2124125312333, -54.793541884216545]}}, {"type": "Feature", "properties": {"norad_id": 31944, "name": "FENGYUN 1C DEB", "group": "fengyun-1c-debris", "lat": 38.66317886094128, "lon": 138.04348785053793, "alt_km": 803.6847848699563, "timestamp": "2025-12-23T16:57:12.638049+00:00", "meta": {"OBJECT_NAME": "FENGYUN 1C DEB", "OBJECT_ID": "1999-025CMV", "EPOCH": "2025-12-12T04:22:40.814976", "MEAN_MOTION": 14.11787529, "ECCENTRICITY": 0.0151811, "INCLINATION": 99.2035, "RA_OF_ASC_NODE": 133.6743, "ARG_OF_PERICENTER": 5.8705, "MEAN_ANOMALY": 173.5719, "EPHEMERIS_TYPE": 0, "CLASSIFICATION_TYPE": "U", "NORAD_CAT_ID": 31944, "ELEMENT_SET_NO": 999, "REV_AT_EPOCH": 62902, "BSTAR": 0.0007470391, "MEAN_MOTION_DOT": 1.471e-05, "MEAN_MOTION_DDOT": 0}, "tle": {"line1": "1 31944U 99025CMV 25346.18241684  .00001471  00000+0  74704-3 0  9997", "line2": "2 31944  99.2035 133.6743 0151811   5.8705 173.5719 14.11787529629027"}}, "geometry": {"type": "Point", "coordinates": [138.04348785053793, 38.66317886094128]}}, {"type": "Feature", "properties": {"norad_id": 31945, "name": "FENGYUN 1C DEB", "group": "fengyun-1c-debris", "lat": 20.90788192630283, "lon": 70.73947239235376, "alt_km": 847.923778176636, "timestamp": "2025-12-23T16:57:12.638059+00:00", "meta": {"OBJECT_NAME": "FENGYUN 1C DEB", "OBJECT_ID": "1999-025CMW", "EPOCH": "2025-12-21T04:00:39.791808", "MEAN_MOTION": 14.20849644, "ECCENTRICITY": 0.00615069, "INCLINATION": 98.9584, "RA_OF_ASC_NODE": 71.6209, "ARG_OF_PERICENTER": 262.904, "MEAN_ANOMALY": 96.514, "EPHEMERIS_TYPE": 0, "CLASSIFICATION_TYPE": "U", "NORAD_CAT_ID": 31945, "ELEMENT_SET_NO": 999, "REV_AT_EPOCH": 95315, "BSTAR": 0.0010233525, "MEAN_MOTION_DOT": 2.209e-05, "MEAN_MOTION_DDOT": 0}, "tle": {"line1": "1 31945U 99025CMW 25355.16712722  .00002209  00000+0  10234-2 0  9999", "line2": "2 31945  98.9584  71.6209 0061506 262.9040  96.5140 14.20849644953153"}}, "geometry": {"type": "Point", "coordinates": [70.73947239235376, 20.90788192630283]}}, {"type": "Feature", "properties": {"norad_id": 31946, "name": "FENGYUN 1C DEB", "group": "fengyun-1c-debris", "lat": 79.1232909981161, "lon": 3.3187170352456388, "alt_km": 805.2479778539882, "timestamp": "2025-12-23T16:57:12.638070+00:00", "meta": {"OBJECT_NAME": "FENGYUN 1C DEB", "OBJECT_ID": "1999-025CMX", "EPOCH": "2025-12-22T10:03:00.826848", "MEAN_MOTION": 14.16479648, "ECCENTRICITY": 0.00815628, "INCLINATION": 98.897, "RA_OF_ASC_NODE": 56.6403, "ARG_OF_PERICENTER": 21.7164, "MEAN_ANOMALY": 338.7436, "EPHEMERIS_TYPE": 0, "CLASSIFICATION_TYPE": "U", "NORAD_CAT_ID": 31946, "ELEMENT_SET_NO": 999, "REV_AT_EPOCH": 64145, "BSTAR": 0.0012395379, "MEAN_MOTION_DOT": 2.504e-05, "MEAN_MOTION_DDOT": 0}, "tle": {"line1": "1 31946U 99025CMX 25356.41875957  .00002504  00000+0  12395-2 0  9997", "line2": "2 31946  98.8970  56.6403 0081562  21.7164 338.7436 14.16479648641457"}}, "geometry": {"type": "Point", "coordinates": [3.3187170352456388, 79.1232909981161]}}, {"type": "Feature", "properties": {"norad_id": 31948, "name": "FENGYUN 1C DEB", "group": "fengyun-1c-debris", "lat": -33.348718313999335, "lon": -127.29204225290698, "alt_km": 815.5424234770917, "timestamp": "2025-12-23T16:57:12.638080+00:00", "meta": {"OBJECT_NAME": "FENGYUN 1C DEB", "OBJECT_ID": "1999-025CMZ", "EPOCH": "2025-12-18T10:10:15.056832", "MEAN_MOTION": 14.28329763, "ECCENTRICITY": 0.00234205, "INCLINATION": 99.3923, "RA_OF_ASC_NODE": 53.282, "ARG_OF_PERICENTER": 5.6805, "MEAN_ANOMALY": 59.9549, "EPHEMERIS_TYPE": 0, "CLASSIFICATION_TYPE": "U", "NORAD_CAT_ID": 31948, "ELEMENT_SET_NO": 999, "REV_AT_EPOCH": 95109, "BSTAR": 0.0011732562, "MEAN_MOTION_DOT": 2.889e-05, "MEAN_MOTION_DDOT": 0}, "tle": {"line1": "1 31948U 99025CMZ 25352.42378538  .00002889  00000+0  11733-2 0  9990", "line2": "2 31948  99.3923  53.2820 0023420   5.6805  59.9549 14.28329763951097"}}, "geometry": {"type": "Point", "coordinates": [-127.29204225290698, -33.348718313999335]}}, {"type": "Feature", "properties": {"norad_id": 31949, "name": "FENGYUN 1C DEB", "group": "fengyun-1c-debris", "lat": -53.417995611318574, "lon": -5.5164584546428355, "alt_km": 894.2477528078316, "timestamp": "2025-12-23T16:57:12.638090+00:00", "meta": {"OBJECT_NAME": "FENGYUN 1C DEB", "OBJECT_ID": "1999-025CNA", "EPOCH": "2025-12-23T05:21:04.784256", "MEAN_MOTION": 14.16925991, "ECCENTRICITY": 0.01261914, "INCLINATION": 98.5469, "RA_OF_ASC_NODE": 342.3284, "ARG_OF_PERICENTER": 182.1147, "MEAN_ANOMALY": 177.951, "EPHEMERIS_TYPE": 0, "CLASSIFICATION_TYPE": "U", "NORAD_CAT_ID": 31949, "ELEMENT_SET_NO": 999, "REV_AT_EPOCH": 95653, "BSTAR": 0.00025831817, "MEAN_MOTION_DOT": 5.19e-06, "MEAN_MOTION_DDOT": 0}, "tle": {"line1": "1 31949U 99025CNA 25357.22297204  .00000519  00000+0  25832-3 0  9998", "line2": "2 31949  98.5469 342.3284 0126191 182.1147 177.9510 14.16925991956534"}}, "geometry": {"type": "Point", "coordinates": [-5.5164584546428355, -53.417995611318574]}}, {"type": "Feature", "properties": {"norad_id": 31952, "name": "FENGYUN 1C DEB", "group": "fengyun-1c-debris", "lat": 72.15439517857348, "lon": -35.11540112334556, "alt_km": 779.5179134625241, "timestamp": "2025-12-23T16:57:12.638100+00:00", "meta": {"OBJECT_NAME": "FENGYUN 1C DEB", "OBJECT_ID": "1999-025CND", "EPOCH": "2025-12-21T06:38:16.029024", "MEAN_MOTION": 14.53528655, "ECCENTRICITY": 0.0114099, "INCLINATION": 98.9556, "RA_OF_ASC_NODE": 112.9598, "ARG_OF_PERICENTER": 266.5142, "MEAN_ANOMALY": 92.2996, "EPHEMERIS_TYPE": 0, "CLASSIFICATION_TYPE": "U", "NORAD_CAT_ID": 31952, "ELEMENT_SET_NO": 999, "REV_AT_EPOCH": 97333, "BSTAR": 0.00040334, "MEAN_MOTION_DOT": 1.775e-05, "MEAN_MOTION_DDOT": 0}, "tle": {"line1": "1 31952U 99025CND 25355.27657441  .00001775  00000+0  40334-3 0  9997", "line2": "2 31952  98.9556 112.9598 0114099 266.5142  92.2996 14.53528655973335"}}, "geometry": {"type": "Point", "coordinates": [-35.11540112334556, 72.15439517857348]}}]}